NORAD_CAT_ID,OBJECT_NAME,OBJECT_TYPE,EPOCH,MEAN_MOTION,ECCENTRICITY,INCLINATION,RA_OF_ASC_NODE,ARG_OF_PERICENTER,MEAN_ANOMALY,BSTAR,MEAN_MOTION_DOT,MEAN_MOTION_DDOT,TLE_LINE0,TLE_LINE1,TLE_LINE2,SEMIMAJOR_AXIS,PERIOD,APOGEE,PERIGEE,DECAYED
52348.0,STARLINK-3829,PAYLOAD,2022-10-20 12:39:57,15.08833381,0.0002743,53.2182,348.482,25.6938,334.4190000000001,6.5189e-05,7.49e-06,0.0,0 STARLINK-3829,1 52348U 22045T   22293.52774896  .00000749  00000-0  65189-4 0  9994,2 52348  53.2182 348.4820 0002743  25.6938 334.4190 15.08833381 29165,6917.901,95.438,541.663,537.868,0.0
52348.0,STARLINK-3829,PAYLOAD,2022-10-21 10:55:21,15.08837618,0.0003103999999999,53.2172,344.3223,24.0635,336.0501,-3.5505e-05,-8.54e-06,0.0,0 STARLINK-3829,1 52348U 22045T   22294.45511202 -.00000854  00000-0 -35505-4 0  9995,2 52348  53.2172 344.3223 0003104  24.0635 336.0501 15.08837618 29302,6917.888000000001,95.438,541.9,537.605,0.0
52348.0,STARLINK-3829,PAYLOAD,2022-10-22 01:13:49,15.08847215,0.0002768999999999,53.2176,341.6427,26.9622,333.1514,3.467e-05,2.63e-06,0.0,0 STARLINK-3829,1 52348U 22045T   22295.05126207  .00000263  00000-0  34670-4 0  9993,2 52348  53.2176 341.6427 0002769  26.9622 333.1514 15.08847215 29390,6917.858,95.437,541.639,537.808,0.0
52348.0,STARLINK-3829,PAYLOAD,2022-10-22 10:46:08,15.08839905,0.0002706,53.2177,339.858,27.6847,332.4289,-1.5689000000000002e-05,-5.38e-06,0.0,0 STARLINK-3829,1 52348U 22045T   22295.44870763 -.00000538  00000-0 -15689-4 0  9995,2 52348  53.2177 339.8580 0002706  27.6847 332.4289 15.08839905 29453,6917.880999999999,95.438,541.618,537.874,0.0
52348.0,STARLINK-3829,PAYLOAD,2022-10-22 20:18:26,15.08847666,0.0002751,53.2175,338.0745,26.7681,333.3453,7.7449e-05,9.45e-06,0.0,0 STARLINK-3829,1 52348U 22045T   22295.84613889  .00000945  00000-0  77449-4 0  9995,2 52348  53.2175 338.0745 0002751  26.7681 333.3453 15.08847666 29514,6917.857,95.437,541.625,537.819,0.0
52348.0,STARLINK-3829,PAYLOAD,2022-10-23 12:12:17,15.08846402,0.0002688,53.2179,335.0998,27.9586,332.155,0.00011171,1.49e-05,0.0,0 STARLINK-3829,1 52348U 22045T   22296.50853518  .00001490  00000-0  11171-3 0  9999,2 52348  53.2179 335.0998 0002688  27.9586 332.1550 15.08846402 29614,6917.861,95.437,541.585,537.866,0.0
52348.0,STARLINK-3829,PAYLOAD,2022-10-23 20:09:12,15.08854934,0.0002788,53.2177,333.6141,28.1508,331.9634,9.6772e-05,1.253e-05,0.0,0 STARLINK-3829,1 52348U 22045T   22296.83972811  .00001253  00000-0  96772-4 0  9991,2 52348  53.2177 333.6141 0002788  28.1508 331.9634 15.08854934 29668,6917.835,95.437,541.628,537.771,0.0
52348.0,STARLINK-3829,PAYLOAD,2022-10-24 04:06:08,15.08852389,0.0002812,53.2175,332.1273,26.2552,333.8582,4.2014e-05,3.8e-06,0.0,0 STARLINK-3829,1 52348U 22045T   22297.17092772  .00000380  00000-0  42014-4 0  9998,2 52348  53.2175 332.1273 0002812  26.2552 333.8582 15.08852389 29713,6917.843000000003,95.437,541.653,537.762,0.0
52348.0,STARLINK-3829,PAYLOAD,2022-10-24 12:03:06,15.08817126,0.0002733,53.2177,330.6388,27.427,332.6865,-0.00015861,-2.81e-05,0.0,0 STARLINK-3829,1 52348U 22045T   22297.50215585 -.00002810  00000-0 -15861-3 0  9995,2 52348  53.2177 330.6388 0002733  27.4270 332.6865 15.08817126 29763,6917.95,95.439,541.706,537.925,0.0
52348.0,STARLINK-3829,PAYLOAD,2022-10-25 03:56:57,15.08825634,0.0003002,53.2167,327.6684,23.649,336.464,-0.00019166,-3.337e-05,0.0,0 STARLINK-3829,1 52348U 22045T   22298.16455693 -.00003337  00000-0 -19166-3 0  9991,2 52348  53.2167 327.6684 0003002  23.6490 336.4640 15.08825634 29866,6917.924,95.438,541.866,537.7130000000002,0.0
52348.0,STARLINK-3829,PAYLOAD,2022-10-25 07:07:43,15.08826656,0.0002793,53.2165,327.0738,24.6806,335.4319,-0.00017487,-3.07e-05,0.0,0 STARLINK-3829,1 52348U 22045T   22298.29703626 -.00003070  00000-0 -17487-3 0  9995,2 52348  53.2165 327.0738 0002793  24.6806 335.4319 15.08826656 29885,6917.920999999999,95.438,541.7180000000002,537.854,0.0
52348.0,STARLINK-3829,PAYLOAD,2022-10-26 03:47:44,15.08834493,0.0003043999999999,53.217,323.2072,24.1401,335.9733,-6.0234e-05,-1.247e-05,0.0,0 STARLINK-3829,1 52348U 22045T   22299.15815299 -.00001247  00000-0 -60234-4 0  9994,2 52348  53.2170 323.2072 0003044  24.1401 335.9733 15.08834493 30016,6917.897,95.438,541.868,537.656,0.0
52348.0,STARLINK-3829,PAYLOAD,2022-10-26 11:44:40,15.08834249,0.0002836,53.2173,321.718,26.1179,333.9956,2.1501e-06,-2.54e-06,0.0,0 STARLINK-3829,1 52348U 22045T   22299.48935228 -.00000254  00000-0  21501-5 0  9996,2 52348  53.2173 321.7180 0002836  26.1179 333.9956 15.08834249 30063,6917.898,95.438,541.725,537.8009999999998,0.0
52348.0,STARLINK-3829,PAYLOAD,2022-10-27 03:38:31,15.08836871,0.0003006,53.2174,318.7461,24.0028,336.1104,0.00019924,2.884e-05,0.0,0 STARLINK-3829,1 52348U 22045T   22300.15174978  .00002884  00000-0  19924-3 0  9994,2 52348  53.2174 318.7461 0003006  24.0028 336.1104 15.08836871 30166,6917.89,95.438,541.8340000000002,537.675,0.0
52348.0,STARLINK-3829,PAYLOAD,2022-10-27 08:24:41,15.088270800000002,0.000295,53.2173,317.8534,25.6189,334.4949,0.00010925,1.4499999999999992e-05,0.0,0 STARLINK-3829,1 52348U 22045T   22300.35047995  .00001450  00000-0  10925-3 0  9994,2 52348  53.2173 317.8534 0002950  25.6189 334.4949 15.08827080 30191,6917.92,95.438,541.826,537.744,0.0
52348.0,STARLINK-3829,PAYLOAD,2022-10-28 06:40:05,15.08840943,0.0003061999999999,53.2171,313.6903,27.1125,333.0026,7.0798e-05,8.38e-06,0.0,0 STARLINK-3829,1 52348U 22045T   22301.27783884  .00000838  00000-0  70798-4 0  9994,2 52348  53.2171 313.6903 0003062  27.1125 333.0026 15.08840943 30335,6917.878000000002,95.437,541.861,537.624,0.0
52348.0,STARLINK-3829,PAYLOAD,2022-10-28 08:15:28,15.08842464,0.0002981,53.2168,313.3939,27.7244,332.3907,8.100800000000001e-05,1.001e-05,0.0,0 STARLINK-3829,1 52348U 22045T   22301.34407748  .00001001  00000-0  81008-4 0  9993,2 52348  53.2168 313.3939 0002981  27.7244 332.3907 15.08842464 30345,6917.873000000001,95.437,541.8,537.6759999999998,0.0
52348.0,STARLINK-3829,PAYLOAD,2022-10-29 08:06:14,15.08843822,0.0002953,53.2176,308.9309,27.4318,332.68300000000005,-9.8635e-05,-1.858e-05,0.0,0 STARLINK-3829,1 52348U 22045T   22302.33766269 -.00001858  00000-0 -98635-4 0  9995,2 52348  53.2176 308.9309 0002953  27.4318 332.6830 15.08843822 30496,6917.869000000002,95.437,541.7769999999998,537.691,0.0
52348.0,STARLINK-3829,PAYLOAD,2022-10-29 17:38:32,15.08845211,0.0002741,53.2165,307.149,28.2916,331.8224,0.00012284,1.667e-05,0.0,0 STARLINK-3829,1 52348U 22045T   22302.73509871  .00001667  00000-0  12284-3 0  9994,2 52348  53.2165 307.1490 0002741  28.2916 331.8224 15.08845211 30553,6917.864000000001,95.437,541.626,537.8330000000002,0.0
52348.0,STARLINK-3829,PAYLOAD,2022-10-30 06:21:37,15.08843457,0.0002657,53.2165,304.7694,30.4488,329.6658,-2.652e-05,-7.11e-06,0.0,0 STARLINK-3829,1 52348U 22045T   22303.26502202 -.00000711  00000-0 -26520-4 0  9994,2 52348  53.2165 304.7694 0002657  30.4488 329.6658 15.08843457 30632,6917.87,95.437,541.573,537.8969999999998,0.0
52348.0,STARLINK-3829,PAYLOAD,2022-10-30 17:29:20,15.08841605,0.0002863999999999,53.2178,302.6854,31.0673,329.0488,-0.00023216,-3.982e-05,0.0,0 STARLINK-3829,1 52348U 22045T   22303.72870832 -.00003982  00000-0 -23216-3 0  9993,2 52348  53.2178 302.6854 0002864  31.0673 329.0488 15.08841605 30700,6917.875,95.437,541.722,537.759,0.0
52348.0,STARLINK-3829,PAYLOAD,2022-10-31 09:23:10,15.08847337,0.0002577,53.2166,299.7154,31.6627,328.452,-2.913e-05,-7.52e-06,0.0,0 STARLINK-3829,1 52348U 22045T   22304.39109296 -.00000752  00000-0 -29130-4 0  9990,2 52348  53.2166 299.7154 0002577  31.6627 328.4520 15.08847337 30801,6917.858,95.437,541.506,537.94,0.0
52348.0,STARLINK-3829,PAYLOAD,2022-10-31 17:20:07,15.08831946,0.0002781,53.2166,298.2271,31.7381,328.3778,4.7648e-05,4.7e-06,0.0,0 STARLINK-3829,1 52348U 22045T   22304.72230397  .00000470  00000-0  47648-4 0  9993,2 52348  53.2166 298.2271 0002781  31.7381 328.3778 15.08831946 30858,6917.905,95.438,541.694,537.846,0.0
52348.0,STARLINK-3829,PAYLOAD,2022-11-01 02:52:25,15.08836824,0.0002672,53.2173,296.4429,27.8901,332.2234,0.00013884,1.922e-05,0.0,0 STARLINK-3829,1 52348U 22045T   22305.11973860  .00001922  00000-0  13884-3 0  9993,2 52348  53.2173 296.4429 0002672  27.8901 332.2234 15.08836824 30912,6917.89,95.438,541.604,537.9069999999998,0.0
52348.0,STARLINK-3829,PAYLOAD,2022-11-01 06:03:12,15.08832531,0.0002555,53.2171,295.8482,29.5283,330.5853,9.6443e-05,1.247e-05,0.0,0 STARLINK-3829,1 52348U 22045T   22305.25222286  .00001247  00000-0  96443-4 0  9990,2 52348  53.2171 295.8482 0002555  29.5283 330.5853 15.08832531 30935,6917.903,95.438,541.536,538.001,0.0
52348.0,STARLINK-3829,PAYLOAD,2022-11-01 18:46:17,15.08836775,0.0002791999999999,53.2168,293.4704,31.1598,328.9559,0.00018469,2.652e-05,0.0,0 STARLINK-3829,1 52348U 22045T   22305.78214155  .00002652  00000-0  18469-3 0  9996,2 52348  53.2168 293.4704 0002792  31.1598 328.9559 15.08836775 31011,6917.89,95.438,541.687,537.8240000000002,0.0
52348.0,STARLINK-3829,PAYLOAD,2022-11-02 02:43:13,15.08834695,0.0002714,53.217,291.9827,30.5369,329.5781,7.9475e-05,9.76e-06,0.0,0 STARLINK-3829,1 52348U 22045T   22306.11334687  .00000976  00000-0  79475-4 0  9999,2 52348  53.2170 291.9827 0002714  30.5369 329.5781 15.08834695 31064,6917.897,95.438,541.639,537.884,0.0
52348.0,STARLINK-3829,PAYLOAD,2022-11-02 05:53:59,15.08838179,0.00027,53.2164,291.3867,33.4659,326.6504,9.5489e-05,1.232e-05,0.0,0 STARLINK-3829,1 52348U 22045T   22306.24582461  .00001232  00000-0  95489-4 0  9997,2 52348  53.2164 291.3867 0002700  33.4659 326.6504 15.08838179 31088,6917.886,95.438,541.619,537.883,0.0
52348.0,STARLINK-3829,PAYLOAD,2022-11-03 04:09:23,15.08833913,0.0002645,53.2171,287.223,32.0347,328.0805,-2.4946e-05,-6.85e-06,0.0,0 STARLINK-3829,1 52348U 22045T   22307.17319361 -.00000685  00000-0 -24946-4 0  9990,2 52348  53.2171 287.2230 0002645  32.0347 328.0805 15.08833913 31228,6917.899,95.438,541.594,537.934,0.0
